{
  "type": "FeatureCollection",
  "properties": {
    "source": "Illustrative placeholder -- see README for Sentinel-1/2 flood-mapping integration notes",
    "generated": "2025-09-14T06:00:00Z"
  },
  "features": [
    {
      "type": "Feature",
      "properties": {
        "name": "Modelled flood extent",
        "confidence": "illustrative"
      },
      "geometry": {
        "type": "Polygon",
        "coordinates": [
          [
            [
              6.7185,
              7.786
            ],
            [
              6.724,
              7.7825
            ],
            [
              6.731,
              7.781
            ],
            [
              6.7375,
              7.783
            ],
            [
              6.742,
              7.787
            ],
            [
              6.7455,
              7.792
            ],
            [
              6.743,
              7.7975
            ],
            [
              6.737,
              7.801
            ],
            [
              6.73,
              7.8025
            ],
            [
              6.723,
              7.8005
            ],
            [
              6.7175,
              7.796
            ],
            [
              6.715,
              7.791
            ],
            [
              6.7185,
              7.786
            ]
          ]
        ]
      }
    },
    {
      "type": "Feature",
      "properties": {
        "name": "Secondary inundation zone (Ganaja lowlands)",
        "confidence": "illustrative"
      },
      "geometry": {
        "type": "Polygon",
        "coordinates": [
          [
            [
              6.698,
              7.801
            ],
            [
              6.704,
              7.7985
            ],
            [
              6.71,
              7.8
            ],
            [
              6.712,
              7.8045
            ],
            [
              6.708,
              7.808
            ],
            [
              6.701,
              7.807
            ],
            [
              6.697,
              7.8045
            ],
            [
              6.698,
              7.801
            ]
          ]
        ]
      }
    }
  ]
}