{
  "type": "FeatureCollection",
  "properties": {
    "source": "Illustrative placeholder -- see README for live NEMA field-reporting integration notes",
    "generated": "2025-09-14T06:00:00Z"
  },
  "features": [
    {
      "type": "Feature",
      "properties": {
        "id": "NEMA-001",
        "locality": "Lokoja Town Centre",
        "status": "good",
        "note": "Route passable, no reported flooding.",
        "reported": "2025-09-14T10:45:00Z",
        "volunteer": "Field Team A"
      },
      "geometry": {
        "type": "Point",
        "coordinates": [
          6.73026,
          7.79937
        ]
      }
    },
    {
      "type": "Feature",
      "properties": {
        "id": "NEMA-002",
        "locality": "Adankolo",
        "status": "bad",
        "note": "Rising water, evacuation in progress.",
        "reported": "2025-09-14T11:00:00Z",
        "volunteer": "Field Team B"
      },
      "geometry": {
        "type": "Point",
        "coordinates": [
          6.73702,
          7.77897
        ]
      }
    },
    {
      "type": "Feature",
      "properties": {
        "id": "NEMA-003",
        "locality": "Ganaja",
        "status": "good",
        "note": "Volunteer checked in, area stable.",
        "reported": "2025-09-14T06:15:00Z",
        "volunteer": "Field Team C"
      },
      "geometry": {
        "type": "Point",
        "coordinates": [
          6.70767,
          7.80412
        ]
      }
    },
    {
      "type": "Feature",
      "properties": {
        "id": "NEMA-004",
        "locality": "Felele",
        "status": "good",
        "note": "Route passable, no reported flooding.",
        "reported": "2025-09-14T10:30:00Z",
        "volunteer": "Field Team D"
      },
      "geometry": {
        "type": "Point",
        "coordinates": [
          6.74265,
          7.81382
        ]
      }
    },
    {
      "type": "Feature",
      "properties": {
        "id": "NEMA-005",
        "locality": "Cement / Ajaokuta Rd axis",
        "status": "bad",
        "note": "Road impassable, residents stranded.",
        "reported": "2025-09-14T10:15:00Z",
        "volunteer": "Field Team E"
      },
      "geometry": {
        "type": "Point",
        "coordinates": [
          6.70196,
          7.75348
        ]
      }
    },
    {
      "type": "Feature",
      "properties": {
        "id": "NEMA-006",
        "locality": "Otokiti (Old GRA)",
        "status": "bad",
        "note": "Road impassable, residents stranded.",
        "reported": "2025-09-14T10:00:00Z",
        "volunteer": "Field Team F"
      },
      "geometry": {
        "type": "Point",
        "coordinates": [
          6.74088,
          7.79548
        ]
      }
    },
    {
      "type": "Feature",
      "properties": {
        "id": "NEMA-007",
        "locality": "Lokongoma",
        "status": "good",
        "note": "No access issues reported.",
        "reported": "2025-09-14T09:30:00Z",
        "volunteer": "Field Team A"
      },
      "geometry": {
        "type": "Point",
        "coordinates": [
          6.72747,
          7.77445
        ]
      }
    },
    {
      "type": "Feature",
      "properties": {
        "id": "NEMA-008",
        "locality": "Zango",
        "status": "good",
        "note": "Distribution point operational.",
        "reported": "2025-09-14T08:15:00Z",
        "volunteer": "Field Team B"
      },
      "geometry": {
        "type": "Point",
        "coordinates": [
          6.73339,
          7.80772
        ]
      }
    },
    {
      "type": "Feature",
      "properties": {
        "id": "NEMA-009",
        "locality": "Kabawa",
        "status": "bad",
        "note": "Rising water, evacuation in progress.",
        "reported": "2025-09-14T06:30:00Z",
        "volunteer": "Field Team C"
      },
      "geometry": {
        "type": "Point",
        "coordinates": [
          6.74759,
          7.79336
        ]
      }
    },
    {
      "type": "Feature",
      "properties": {
        "id": "NEMA-010",
        "locality": "Gadumo",
        "status": "good",
        "note": "Water levels receding, road clear.",
        "reported": "2025-09-14T08:00:00Z",
        "volunteer": "Field Team D"
      },
      "geometry": {
        "type": "Point",
        "coordinates": [
          6.718,
          7.7692
        ]
      }
    },
    {
      "type": "Feature",
      "properties": {
        "id": "NEMA-011",
        "locality": "Sarkin Noma",
        "status": "good",
        "note": "Distribution point operational.",
        "reported": "2025-09-14T07:45:00Z",
        "volunteer": "Field Team E"
      },
      "geometry": {
        "type": "Point",
        "coordinates": [
          6.72084,
          7.81144
        ]
      }
    },
    {
      "type": "Feature",
      "properties": {
        "id": "NEMA-012",
        "locality": "Ganaja Junction (Abuja Rd)",
        "status": "good",
        "note": "Route passable, no reported flooding.",
        "reported": "2025-09-14T10:30:00Z",
        "volunteer": "Field Team F"
      },
      "geometry": {
        "type": "Point",
        "coordinates": [
          6.7252,
          7.79987
        ]
      }
    },
    {
      "type": "Feature",
      "properties": {
        "id": "NEMA-013",
        "locality": "Phase II",
        "status": "bad",
        "note": "Bridge access cut off.",
        "reported": "2025-09-14T10:45:00Z",
        "volunteer": "Field Team A"
      },
      "geometry": {
        "type": "Point",
        "coordinates": [
          6.7183,
          7.78672
        ]
      }
    },
    {
      "type": "Feature",
      "properties": {
        "id": "NEMA-014",
        "locality": "Bishop Dele Rd area",
        "status": "good",
        "note": "Distribution point operational.",
        "reported": "2025-09-14T09:00:00Z",
        "volunteer": "Field Team B"
      },
      "geometry": {
        "type": "Point",
        "coordinates": [
          6.73625,
          7.79855
        ]
      }
    },
    {
      "type": "Feature",
      "properties": {
        "id": "NEMA-015",
        "locality": "Ndanaku waterfront",
        "status": "good",
        "note": "No access issues reported.",
        "reported": "2025-09-14T11:45:00Z",
        "volunteer": "Field Team C"
      },
      "geometry": {
        "type": "Point",
        "coordinates": [
          6.73161,
          7.78199
        ]
      }
    },
    {
      "type": "Feature",
      "properties": {
        "id": "NEMA-016",
        "locality": "Court Road",
        "status": "bad",
        "note": "Volunteer unable to reach location.",
        "reported": "2025-09-14T06:45:00Z",
        "volunteer": "Field Team D"
      },
      "geometry": {
        "type": "Point",
        "coordinates": [
          6.73509,
          7.79378
        ]
      }
    }
  ]
}